[{"OBJECT_NAME":"STARLINK-3338","OBJECT_ID":"2022-001K","EPOCH":"2026-03-09T13:42:29.975328","MEAN_MOTION":15.08839183,"ECCENTRICITY":0.0001102,"INCLINATION":53.2163,"RA_OF_ASC_NODE":159.7572,"ARG_OF_PERICENTER":100.0964,"MEAN_ANOMALY":260.0153,"EPHEMERIS_TYPE":0,"CLASSIFICATION_TYPE":"U","NORAD_CAT_ID":50812,"ELEMENT_SET_NO":999,"REV_AT_EPOCH":23052,"BSTAR":-3.5802e-5,"MEAN_MOTION_DOT":-8.58e-6,"MEAN_MOTION_DDOT":0},{"OBJECT_NAME":"PSLV DEB","OBJECT_ID":"2001-049CY","EPOCH":"2026-03-09T18:20:37.296384","MEAN_MOTION":15.08389698,"ECCENTRICITY":0.00190632,"INCLINATION":97.9861,"RA_OF_ASC_NODE":156.2845,"ARG_OF_PERICENTER":340.3269,"MEAN_ANOMALY":19.722,"EPHEMERIS_TYPE":0,"CLASSIFICATION_TYPE":"U","NORAD_CAT_ID":27152,"ELEMENT_SET_NO":999,"REV_AT_EPOCH":30598,"BSTAR":0.00053695108,"MEAN_MOTION_DOT":8.318e-5,"MEAN_MOTION_DDOT":0}]
